{"type": "FeatureCollection", "features": [ {"type": "Feature", "properties": {"norad_id": 29953, "name": "FENGYUN 1C DEB", "group": "fengyun-1c-debris", "lat": 24.515941856565387, "lon": 148.22461517217945, "alt_km": 982.7952934240056, "timestamp": "2025-12-02T19:35:50.828436+00:00", "meta": {"OBJECT_NAME": "FENGYUN 1C DEB", "OBJECT_ID": "1999-025KB", "EPOCH": "2025-12-02T12:31:05.356992", "MEAN_MOTION": 13.90828125, "ECCENTRICITY": 0.0105717, "INCLINATION": 98.9371, "RA_OF_ASC_NODE": 323.8255, "ARG_OF_PERICENTER": 294.744, "MEAN_ANOMALY": 185.0103, "EPHEMERIS_TYPE": 0, "CLASSIFICATION_TYPE": "U", "NORAD_CAT_ID": 29953, "ELEMENT_SET_NO": 999, "REV_AT_EPOCH": 95720, "BSTAR": 0.00044626, "MEAN_MOTION_DOT": 5.41e-06, "MEAN_MOTION_DDOT": 0}, "tle": {"line1": "1 29953U 99025KB  25336.52158978  .00000541  00000+0  44626-3 0  9991", "line2": "2 29953  98.9371 323.8255 0105717 294.7440 185.0103 13.90828125957206"}}, "geometry": {"type": "Point", "coordinates": [148.22461517217945, 24.515941856565387]}}, {"type": "Feature", "properties": {"norad_id": 29954, "name": "FENGYUN 1C DEB", "group": "fengyun-1c-debris", "lat": 0.08083895755645758, "lon": 13.179081477585623, "alt_km": 756.1776917447814, "timestamp": "2025-12-02T19:35:50.828446+00:00", "meta": {"OBJECT_NAME": "FENGYUN 1C DEB", "OBJECT_ID": "1999-025KC", "EPOCH": "2025-12-02T09:33:03.112416", "MEAN_MOTION": 14.3415107, "ECCENTRICITY": 0.0074163, "INCLINATION": 100.1521, "RA_OF_ASC_NODE": 12.7028, "ARG_OF_PERICENTER": 298.5789, "MEAN_ANOMALY": 60.7941, "EPHEMERIS_TYPE": 0, "CLASSIFICATION_TYPE": "U", "NORAD_CAT_ID": 29954, "ELEMENT_SET_NO": 999, "REV_AT_EPOCH": 98039, "BSTAR": 0.001248, "MEAN_MOTION_DOT": 3.548e-05, "MEAN_MOTION_DDOT": 0}, "tle": {"line1": "1 29954U 99025KC  25336.39795269  .00003548  00000+0  12480-2 0  9999", "line2": "2 29954 100.1521  12.7028 0074163 298.5789  60.7941 14.34151070980392"}}, "geometry": {"type": "Point", "coordinates": [13.179081477585623, 0.08083895755645758]}}, {"type": "Feature", "properties": {"norad_id": 29955, "name": "FENGYUN 1C DEB", "group": "fengyun-1c-debris", "lat": -48.22671065370387, "lon": 67.24165065505784, "alt_km": 767.4498939645109, "timestamp": "2025-12-02T19:35:50.828457+00:00", "meta": {"OBJECT_NAME": "FENGYUN 1C DEB", "OBJECT_ID": "1999-025KD", "EPOCH": "2025-12-02T05:03:11.118240", "MEAN_MOTION": 14.38083763, "ECCENTRICITY": 0.0006989, "INCLINATION": 99.2752, "RA_OF_ASC_NODE": 56.0466, "ARG_OF_PERICENTER": 279.0346, "MEAN_ANOMALY": 136.2774, "EPHEMERIS_TYPE": 0, "CLASSIFICATION_TYPE": "U", "NORAD_CAT_ID": 29955, "ELEMENT_SET_NO": 999, "REV_AT_EPOCH": 97910, "BSTAR": 0.0018543, "MEAN_MOTION_DOT": 5.573e-05, "MEAN_MOTION_DDOT": 0}, "tle": {"line1": "1 29955U 99025KD  25336.21054535  .00005573  00000+0  18543-2 0  9991", "line2": "2 29955  99.2752  56.0466 0006989 279.0346 136.2774 14.38083763979105"}}, "geometry": {"type": "Point", "coordinates": [67.24165065505784, -48.22671065370387]}}, {"type": "Feature", "properties": {"norad_id": 29956, "name": "FENGYUN 1C DEB", "group": "fengyun-1c-debris", "lat": 74.33885640437944, "lon": -27.550624999726647, "alt_km": 831.984126227755, "timestamp": "2025-12-02T19:35:50.828468+00:00", "meta": {"OBJECT_NAME": "FENGYUN 1C DEB", "OBJECT_ID": "1999-025KE", "EPOCH": "2025-12-02T09:02:14.206848", "MEAN_MOTION": 14.06166818, "ECCENTRICITY": 0.0054141, "INCLINATION": 98.7929, "RA_OF_ASC_NODE": 5.5319, "ARG_OF_PERICENTER": 46.4035, "MEAN_ANOMALY": 324.1174, "EPHEMERIS_TYPE": 0, "CLASSIFICATION_TYPE": "U", "NORAD_CAT_ID": 29956, "ELEMENT_SET_NO": 999, "REV_AT_EPOCH": 96904, "BSTAR": 0.00021785, "MEAN_MOTION_DOT": 3.2e-06, "MEAN_MOTION_DDOT": 0}, "tle": {"line1": "1 29956U 99025KE  25336.37655332  .00000320  00000+0  21785-3 0  9999", "line2": "2 29956  98.7929   5.5319 0054141  46.4035 324.1174 14.06166818969048"}}, "geometry": {"type": "Point", "coordinates": [-27.550624999726647, 74.33885640437944]}}, {"type": "Feature", "properties": {"norad_id": 29957, "name": "FENGYUN 1C DEB", "group": "fengyun-1c-debris", "lat": -22.750902580791553, "lon": 106.96903522713366, "alt_km": 747.6311530702642, "timestamp": "2025-12-02T19:35:50.828478+00:00", "meta": {"OBJECT_NAME": "FENGYUN 1C DEB", "OBJECT_ID": "1999-025KF", "EPOCH": "2025-12-02T08:23:34.512000", "MEAN_MOTION": 14.50469162, "ECCENTRICITY": 0.0039257, "INCLINATION": 98.9212, "RA_OF_ASC_NODE": 102.6978, "ARG_OF_PERICENTER": 207.532, "MEAN_ANOMALY": 212.8075, "EPHEMERIS_TYPE": 0, "CLASSIFICATION_TYPE": "U", "NORAD_CAT_ID": 29957, "ELEMENT_SET_NO": 999, "REV_AT_EPOCH": 97341, "BSTAR": 0.0058554, "MEAN_MOTION_DOT": 0.00023154, "MEAN_MOTION_DDOT": 0}, "tle": {"line1": "1 29957U 99025KF  25336.34970500  .00023154  00000+0  58554-2 0  9997", "line2": "2 29957  98.9212 102.6978 0039257 207.5320 212.8075 14.50469162973410"}}, "geometry": {"type": "Point", "coordinates": [106.96903522713366, -22.750902580791553]}}, {"type": "Feature", "properties": {"norad_id": 29958, "name": "FENGYUN 1C DEB", "group": "fengyun-1c-debris", "lat": 69.46315270584145, "lon": -164.49257499535094, "alt_km": 848.816404192783, "timestamp": "2025-12-02T19:35:50.828489+00:00", "meta": {"OBJECT_NAME": "FENGYUN 1C DEB", "OBJECT_ID": "1999-025KG", "EPOCH": "2025-12-02T07:12:15.843168", "MEAN_MOTION": 14.14434536, "ECCENTRICITY": 0.0054905, "INCLINATION": 98.6691, "RA_OF_ASC_NODE": 350.9735, "ARG_OF_PERICENTER": 3.198, "MEAN_ANOMALY": 356.9534, "EPHEMERIS_TYPE": 0, "CLASSIFICATION_TYPE": "U", "NORAD_CAT_ID": 29958, "ELEMENT_SET_NO": 999, "REV_AT_EPOCH": 97303, "BSTAR": 0.0004397, "MEAN_MOTION_DOT": 8.12e-06, "MEAN_MOTION_DDOT": 0}, "tle": {"line1": "1 29958U 99025KG  25336.30018337  .00000812  00000+0  43970-3 0  9998", "line2": "2 29958  98.6691 350.9735 0054905   3.1980 356.9534 14.14434536973032"}}, "geometry": {"type": "Point", "coordinates": [-164.49257499535094, 69.46315270584145]}}, {"type": "Feature", "properties": {"norad_id": 29959, "name": "FENGYUN 1C DEB", "group": "fengyun-1c-debris", "lat": 25.52846248881459, "lon": 3.5052369976199422, "alt_km": 845.6774728036371, "timestamp": "2025-12-02T19:35:50.828500+00:00", "meta": {"OBJECT_NAME": "FENGYUN 1C DEB", "OBJECT_ID": "1999-025KH", "EPOCH": "2025-12-02T09:18:33.100704", "MEAN_MOTION": 14.0600624, "ECCENTRICITY": 0.004208, "INCLINATION": 98.8094, "RA_OF_ASC_NODE": 7.3356, "ARG_OF_PERICENTER": 357.2907, "MEAN_ANOMALY": 19.8261, "EPHEMERIS_TYPE": 0, "CLASSIFICATION_TYPE": "U", "NORAD_CAT_ID": 29959, "ELEMENT_SET_NO": 999, "REV_AT_EPOCH": 96795, "BSTAR": 0.00028761, "MEAN_MOTION_DOT": 4.32e-06, "MEAN_MOTION_DDOT": 0}, "tle": {"line1": "1 29959U 99025KH  25336.38788311  .00000432  00000+0  28761-3 0  9992", "line2": "2 29959  98.8094   7.3356 0042080 357.2907  19.8261 14.06006240967951"}}, "geometry": {"type": "Point", "coordinates": [3.5052369976199422, 25.52846248881459]}}, {"type": "Feature", "properties": {"norad_id": 29960, "name": "FENGYUN 1C DEB", "group": "fengyun-1c-debris", "lat": 81.22812579818532, "lon": -138.0889130098198, "alt_km": 877.8182317994988, "timestamp": "2025-12-02T19:35:50.828510+00:00", "meta": {"OBJECT_NAME": "FENGYUN 1C DEB", "OBJECT_ID": "1999-025KJ", "EPOCH": "2025-12-02T11:18:41.698080", "MEAN_MOTION": 14.16368839, "ECCENTRICITY": 0.0091361, "INCLINATION": 98.6136, "RA_OF_ASC_NODE": 322.3723, "ARG_OF_PERICENTER": 316.0269, "MEAN_ANOMALY": 175.4978, "EPHEMERIS_TYPE": 0, "CLASSIFICATION_TYPE": "U", "NORAD_CAT_ID": 29960, "ELEMENT_SET_NO": 999, "REV_AT_EPOCH": 97309, "BSTAR": 0.00064888, "MEAN_MOTION_DOT": 1.299e-05, "MEAN_MOTION_DDOT": 0}, "tle": {"line1": "1 29960U 99025KJ  25336.47131595  .00001299  00000+0  64888-3 0  9992", "line2": "2 29960  98.6136 322.3723 0091361 316.0269 175.4978 14.16368839973098"}}, "geometry": {"type": "Point", "coordinates": [-138.0889130098198, 81.22812579818532]}}, {"type": "Feature", "properties": {"norad_id": 29961, "name": "FENGYUN 1C DEB", "group": "fengyun-1c-debris", "lat": -80.65527291981309, "lon": -29.246008978445314, "alt_km": 790.0253508411151, "timestamp": "2025-12-02T19:35:50.828532+00:00", "meta": {"OBJECT_NAME": "FENGYUN 1C DEB", "OBJECT_ID": "1999-025KK", "EPOCH": "2025-12-02T11:36:26.781120", "MEAN_MOTION": 14.26197172, "ECCENTRICITY": 0.0074613, "INCLINATION": 98.9486, "RA_OF_ASC_NODE": 223.6518, "ARG_OF_PERICENTER": 334.7071, "MEAN_ANOMALY": 25.0463, "EPHEMERIS_TYPE": 0, "CLASSIFICATION_TYPE": "U", "NORAD_CAT_ID": 29961, "ELEMENT_SET_NO": 999, "REV_AT_EPOCH": 98163, "BSTAR": 0.00028083, "MEAN_MOTION_DOT": 6.46e-06, "MEAN_MOTION_DDOT": 0}, "tle": {"line1": "1 29961U 99025KK  25336.48364330  .00000646  00000+0  28083-3 0  9991", "line2": "2 29961  98.9486 223.6518 0074613 334.7071  25.0463 14.26197172981633"}}, "geometry": {"type": "Point", "coordinates": [-29.246008978445314, -80.65527291981309]}}, {"type": "Feature", "properties": {"norad_id": 29962, "name": "FENGYUN 1C DEB", "group": "fengyun-1c-debris", "lat": 39.94676370667414, "lon": -22.141533599723868, "alt_km": 935.3130862936132, "timestamp": "2025-12-02T19:35:50.828545+00:00", "meta": {"OBJECT_NAME": "FENGYUN 1C DEB", "OBJECT_ID": "1999-025KL", "EPOCH": "2025-12-02T11:37:16.054176", "MEAN_MOTION": 14.0714707, "ECCENTRICITY": 0.010943, "INCLINATION": 98.7688, "RA_OF_ASC_NODE": 344.9634, "ARG_OF_PERICENTER": 250.3121, "MEAN_ANOMALY": 267.0358, "EPHEMERIS_TYPE": 0, "CLASSIFICATION_TYPE": "U", "NORAD_CAT_ID": 29962, "ELEMENT_SET_NO": 999, "REV_AT_EPOCH": 96853, "BSTAR": 0.00033919, "MEAN_MOTION_DOT": 5.56e-06, "MEAN_MOTION_DDOT": 0}, "tle": {"line1": "1 29962U 99025KL  25336.48421359  .00000556  00000+0  33919-3 0  9991", "line2": "2 29962  98.7688 344.9634 0109430 250.3121 267.0358 14.07147070968533"}}, "geometry": {"type": "Point", "coordinates": [-22.141533599723868, 39.94676370667414]}}]}